<?xml version="1.0"?>
<osm version="0.6" upload="false" generator="uvmogr2osm">
<node id="-1" lat="45.547006521" lon="-122.968498264" visible="true"><tag k="addr:housenumber" v="3100"/><tag k="addr:postcode" v="97124"/><tag k="addr:city" v="Hillsboro"/><tag k="addr:street" v="Northeast 13th Place"/></node>
<node id="-2" lat="45.547037391" lon="-122.968439777" visible="true"><tag k="addr:housenumber" v="3102"/><tag k="addr:postcode" v="97124"/><tag k="addr:city" v="Hillsboro"/><tag k="addr:street" v="Northeast 13th Place"/></node>
<node id="-3" lat="45.547160467" lon="-122.968329387" visible="true"><tag k="addr:housenumber" v="3122"/><tag k="addr:postcode" v="97124"/><tag k="addr:city" v="Hillsboro"/><tag k="addr:street" v="Northeast 13th Place"/></node>
<node id="-4" lat="45.547234411" lon="-122.968323778" visible="true"><tag k="addr:housenumber" v="3124"/><tag k="addr:postcode" v="97124"/><tag k="addr:city" v="Hillsboro"/><tag k="addr:street" v="Northeast 13th Place"/></node>
<node id="-5" lat="45.547086216" lon="-122.96900095" visible="true"><tag k="addr:housenumber" v="3125"/><tag k="addr:postcode" v="97124"/><tag k="addr:city" v="Hillsboro"/><tag k="addr:street" v="Northeast 13th Place"/></node>
<node id="-6" lat="45.547046201" lon="-122.968951472" visible="true"><tag k="addr:housenumber" v="3127"/><tag k="addr:postcode" v="97124"/><tag k="addr:city" v="Hillsboro"/><tag k="addr:street" v="Northeast 13th Place"/></node>
<node id="-7" lat="45.547225457" lon="-122.969049241" visible="true"><tag k="addr:housenumber" v="3131"/><tag k="addr:postcode" v="97124"/><tag k="addr:city" v="Hillsboro"/><tag k="addr:street" v="Northeast 13th Place"/></node>
<node id="-8" lat="45.547281533" lon="-122.969055073" visible="true"><tag k="addr:housenumber" v="3133"/><tag k="addr:postcode" v="97124"/><tag k="addr:city" v="Hillsboro"/><tag k="addr:street" v="Northeast 13th Place"/></node>
<node id="-9" lat="45.547391039" lon="-122.969071627" visible="true"><tag k="addr:housenumber" v="3143"/><tag k="addr:postcode" v="97124"/><tag k="addr:city" v="Hillsboro"/><tag k="addr:street" v="Northeast 13th Place"/></node>
<node id="-10" lat="45.547463763" lon="-122.969065351" visible="true"><tag k="addr:housenumber" v="3145"/><tag k="addr:postcode" v="97124"/><tag k="addr:city" v="Hillsboro"/><tag k="addr:street" v="Northeast 13th Place"/></node>
<node id="-11" lat="45.547516716" lon="-122.968487266" visible="true"><tag k="addr:housenumber" v="3154"/><tag k="addr:postcode" v="97124"/><tag k="addr:city" v="Hillsboro"/><tag k="addr:street" v="Northeast 13th Place"/></node>
<node id="-12" lat="45.547586235" lon="-122.968481556" visible="true"><tag k="addr:housenumber" v="3156"/><tag k="addr:postcode" v="97124"/><tag k="addr:city" v="Hillsboro"/><tag k="addr:street" v="Northeast 13th Place"/></node>
<node id="-13" lat="45.547580994" lon="-122.969070262" visible="true"><tag k="addr:housenumber" v="3157"/><tag k="addr:postcode" v="97124"/><tag k="addr:city" v="Hillsboro"/><tag k="addr:street" v="Northeast 13th Place"/></node>
<node id="-14" lat="45.547661473" lon="-122.969080425" visible="true"><tag k="addr:housenumber" v="3159"/><tag k="addr:postcode" v="97124"/><tag k="addr:city" v="Hillsboro"/><tag k="addr:street" v="Northeast 13th Place"/></node>
<node id="-15" lat="45.547761734" lon="-122.968497632" visible="true"><tag k="addr:housenumber" v="3162"/><tag k="addr:postcode" v="97124"/><tag k="addr:city" v="Hillsboro"/><tag k="addr:street" v="Northeast 13th Place"/></node>
<node id="-16" lat="45.547711416" lon="-122.968498216" visible="true"><tag k="addr:housenumber" v="3164"/><tag k="addr:postcode" v="97124"/><tag k="addr:city" v="Hillsboro"/><tag k="addr:street" v="Northeast 13th Place"/></node>
<node id="-17" lat="45.547783408" lon="-122.969073017" visible="true"><tag k="addr:housenumber" v="3171"/><tag k="addr:postcode" v="97124"/><tag k="addr:city" v="Hillsboro"/><tag k="addr:street" v="Northeast 13th Place"/></node>
<node id="-18" lat="45.547854339" lon="-122.969061746" visible="true"><tag k="addr:housenumber" v="3173"/><tag k="addr:postcode" v="97124"/><tag k="addr:city" v="Hillsboro"/><tag k="addr:street" v="Northeast 13th Place"/></node>
<node id="-19" lat="45.547897934" lon="-122.968505892" visible="true"><tag k="addr:housenumber" v="3174"/><tag k="addr:postcode" v="97124"/><tag k="addr:city" v="Hillsboro"/><tag k="addr:street" v="Northeast 13th Place"/></node>
<node id="-20" lat="45.547951499" lon="-122.968504962" visible="true"><tag k="addr:housenumber" v="3176"/><tag k="addr:postcode" v="97124"/><tag k="addr:city" v="Hillsboro"/><tag k="addr:street" v="Northeast 13th Place"/></node>
<node id="-21" lat="45.547962872" lon="-122.969056687" visible="true"><tag k="addr:housenumber" v="3185"/><tag k="addr:postcode" v="97124"/><tag k="addr:city" v="Hillsboro"/><tag k="addr:street" v="Northeast 13th Place"/></node>
<node id="-22" lat="45.548023535" lon="-122.969056167" visible="true"><tag k="addr:housenumber" v="3187"/><tag k="addr:postcode" v="97124"/><tag k="addr:city" v="Hillsboro"/><tag k="addr:street" v="Northeast 13th Place"/></node>
<node id="-23" lat="45.54826351" lon="-122.968549954" visible="true"><tag k="addr:housenumber" v="3204"/><tag k="addr:postcode" v="97124"/><tag k="addr:city" v="Hillsboro"/><tag k="addr:street" v="Northeast 13th Place"/></node>
<node id="-24" lat="45.548314933" lon="-122.96856777" visible="true"><tag k="addr:housenumber" v="3206"/><tag k="addr:postcode" v="97124"/><tag k="addr:city" v="Hillsboro"/><tag k="addr:street" v="Northeast 13th Place"/></node>
<node id="-25" lat="45.548431157" lon="-122.968621899" visible="true"><tag k="addr:housenumber" v="3216"/><tag k="addr:postcode" v="97124"/><tag k="addr:city" v="Hillsboro"/><tag k="addr:street" v="Northeast 13th Place"/></node>
<node id="-26" lat="45.548491758" lon="-122.968627509" visible="true"><tag k="addr:housenumber" v="3218"/><tag k="addr:postcode" v="97124"/><tag k="addr:city" v="Hillsboro"/><tag k="addr:street" v="Northeast 13th Place"/></node>
<node id="-27" lat="45.545716589" lon="-122.968357659" visible="true"><tag k="addr:housenumber" v="2935"/><tag k="addr:postcode" v="97124"/><tag k="addr:city" v="Hillsboro"/><tag k="addr:street" v="Northeast 14th Avenue"/></node>
<node id="-28" lat="45.545714498" lon="-122.968363371" visible="true"><tag k="addr:housenumber" v="2937"/><tag k="addr:postcode" v="97124"/><tag k="addr:city" v="Hillsboro"/><tag k="addr:street" v="Northeast 14th Avenue"/></node>
<node id="-29" lat="45.545978116" lon="-122.968280289" visible="true"><tag k="addr:housenumber" v="2969"/><tag k="addr:postcode" v="97124"/><tag k="addr:city" v="Hillsboro"/><tag k="addr:street" v="Northeast 14th Avenue"/></node>
<node id="-30" lat="45.548809733" lon="-122.968310022" visible="true"><tag k="addr:housenumber" v="3275"/><tag k="addr:postcode" v="97124"/><tag k="addr:city" v="Hillsboro"/><tag k="addr:street" v="Northeast 14th Avenue"/></node>
<node id="-31" lat="45.548867146" lon="-122.968309719" visible="true"><tag k="addr:housenumber" v="3277"/><tag k="addr:postcode" v="97124"/><tag k="addr:city" v="Hillsboro"/><tag k="addr:street" v="Northeast 14th Avenue"/></node>
<node id="-32" lat="45.546151188" lon="-122.967115657" visible="true"><tag k="addr:housenumber" v="2955"/><tag k="addr:postcode" v="97124"/><tag k="addr:city" v="Hillsboro"/><tag k="addr:street" v="Northeast 15th Avenue"/></node>
<node id="-33" lat="45.548870311" lon="-122.966672768" visible="true"><tag k="addr:housenumber" v="1495"/><tag k="addr:postcode" v="97124"/><tag k="addr:city" v="Hillsboro"/><tag k="addr:street" v="Northeast Edgefield Street"/></node>
<node id="-34" lat="45.548869659" lon="-122.966599596" visible="true"><tag k="addr:housenumber" v="1497"/><tag k="addr:postcode" v="97124"/><tag k="addr:city" v="Hillsboro"/><tag k="addr:street" v="Northeast Edgefield Street"/></node>
<node id="-35" lat="45.542033" lon="-122.969529944" visible="true"><tag k="addr:housenumber" v="2402"/><tag k="addr:postcode" v="97124"/><tag k="addr:city" v="Hillsboro"/><tag k="addr:street" v="Northeast Java Way"/></node>
<node id="-36" lat="45.542038322" lon="-122.969528507" visible="true"><tag k="addr:housenumber" v="2414"/><tag k="addr:postcode" v="97124"/><tag k="addr:city" v="Hillsboro"/><tag k="addr:street" v="Northeast Java Way"/></node>
<node id="-37" lat="45.545979087" lon="-122.969966429" visible="true"><tag k="addr:housenumber" v="1262"/><tag k="addr:postcode" v="97124"/><tag k="addr:city" v="Hillsboro"/><tag k="addr:street" v="Northeast Kinney Street"/></node>
<node id="-38" lat="45.545978519" lon="-122.96997127" visible="true"><tag k="addr:housenumber" v="1268"/><tag k="addr:postcode" v="97124"/><tag k="addr:city" v="Hillsboro"/><tag k="addr:street" v="Northeast Kinney Street"/></node>
<node id="-39" lat="45.5459783" lon="-122.968274147" visible="true"><tag k="addr:housenumber" v="1372"/><tag k="addr:postcode" v="97124"/><tag k="addr:city" v="Hillsboro"/><tag k="addr:street" v="Northeast Kinney Street"/></node>
<node id="-40" lat="45.548367669" lon="-122.96921327" visible="true"><tag k="addr:housenumber" v="1315"/><tag k="addr:postcode" v="97124"/><tag k="addr:city" v="Hillsboro"/><tag k="addr:street" v="Northeast Maureen Street"/></node>
<node id="-41" lat="45.548372294" lon="-122.969138878" visible="true"><tag k="addr:housenumber" v="1317"/><tag k="addr:postcode" v="97124"/><tag k="addr:city" v="Hillsboro"/><tag k="addr:street" v="Northeast Maureen Street"/></node>
<node id="-42" lat="45.546152298" lon="-122.967116" visible="true"><tag k="addr:housenumber" v="1487"/><tag k="addr:postcode" v="97124"/><tag k="addr:city" v="Hillsboro"/><tag k="addr:street" v="Northeast Prahl Parkway"/></node>
<node id="-43" lat="45.538258532" lon="-122.798329968" visible="true"><tag k="addr:housenumber" v="2555"/><tag k="addr:postcode" v="97229"/><tag k="addr:city" v="Portland"/><tag k="addr:street" v="Northwest 118th Terrace"/></node>
<node id="-44" lat="45.538255283" lon="-122.798323417" visible="true"><tag k="addr:housenumber" v="11800"/><tag k="addr:postcode" v="97229"/><tag k="addr:city" v="Portland"/><tag k="addr:street" v="Northwest Mcdaniel Road"/></node>
</osm>