<?xml version="1.0"?>
<osm version="0.6" upload="false" generator="uvmogr2osm">
<node id="-1" lat="45.543985741" lon="-122.994333482" visible="true"><tag k="addr:housenumber" v="2559"/><tag k="addr:postcode" v="97124"/><tag k="addr:city" v="Hillsboro"/><tag k="addr:street" v="Northeast 1st Drive"/></node>
<node id="-2" lat="45.544072071" lon="-122.994330982" visible="true"><tag k="addr:housenumber" v="2563"/><tag k="addr:postcode" v="97124"/><tag k="addr:city" v="Hillsboro"/><tag k="addr:street" v="Northeast 1st Drive"/></node>
<node id="-3" lat="45.54845994" lon="-122.995036091" visible="true"><tag k="addr:housenumber" v="3295"/><tag k="addr:postcode" v="97124"/><tag k="addr:city" v="Hillsboro"/><tag k="addr:street" v="Northeast 1st Place"/></node>
<node id="-4" lat="45.543679417" lon="-122.995363407" visible="true"><tag k="addr:housenumber" v="2529"/><tag k="addr:postcode" v="97124"/><tag k="addr:city" v="Hillsboro"/><tag k="addr:street" v="Northeast Amber Avenue"/></node>
<node id="-5" lat="45.543737986" lon="-122.995394905" visible="true"><tag k="addr:housenumber" v="2533"/><tag k="addr:postcode" v="97124"/><tag k="addr:city" v="Hillsboro"/><tag k="addr:street" v="Northeast Amber Avenue"/></node>
<node id="-6" lat="45.543889027" lon="-122.995330729" visible="true"><tag k="addr:housenumber" v="2551"/><tag k="addr:postcode" v="97124"/><tag k="addr:city" v="Hillsboro"/><tag k="addr:street" v="Northeast Amber Avenue"/></node>
<node id="-7" lat="45.543943039" lon="-122.99533721" visible="true"><tag k="addr:housenumber" v="2555"/><tag k="addr:postcode" v="97124"/><tag k="addr:city" v="Hillsboro"/><tag k="addr:street" v="Northeast Amber Avenue"/></node>
<node id="-8" lat="45.543969135" lon="-122.994783004" visible="true"><tag k="addr:housenumber" v="2562"/><tag k="addr:postcode" v="97124"/><tag k="addr:city" v="Hillsboro"/><tag k="addr:street" v="Northeast Amber Avenue"/></node>
<node id="-9" lat="45.54402412" lon="-122.994781543" visible="true"><tag k="addr:housenumber" v="2566"/><tag k="addr:postcode" v="97124"/><tag k="addr:city" v="Hillsboro"/><tag k="addr:street" v="Northeast Amber Avenue"/></node>
<node id="-10" lat="45.544194464" lon="-122.994709347" visible="true"><tag k="addr:housenumber" v="2588"/><tag k="addr:postcode" v="97124"/><tag k="addr:city" v="Hillsboro"/><tag k="addr:street" v="Northeast Amber Avenue"/></node>
<node id="-11" lat="45.544259697" lon="-122.994703376" visible="true"><tag k="addr:housenumber" v="2592"/><tag k="addr:postcode" v="97124"/><tag k="addr:city" v="Hillsboro"/><tag k="addr:street" v="Northeast Amber Avenue"/></node>
<node id="-12" lat="45.544383306" lon="-122.994671445" visible="true"><tag k="addr:housenumber" v="2616"/><tag k="addr:postcode" v="97124"/><tag k="addr:city" v="Hillsboro"/><tag k="addr:street" v="Northeast Amber Avenue"/></node>
<node id="-13" lat="45.544435729" lon="-122.994700957" visible="true"><tag k="addr:housenumber" v="2620"/><tag k="addr:postcode" v="97124"/><tag k="addr:city" v="Hillsboro"/><tag k="addr:street" v="Northeast Amber Avenue"/></node>
<node id="-14" lat="45.544009086" lon="-122.994604342" visible="true"><tag k="addr:housenumber" v="165"/><tag k="addr:postcode" v="97124"/><tag k="addr:city" v="Hillsboro"/><tag k="addr:street" v="Northeast Skylar Street"/></node>
<node id="-15" lat="45.544011176" lon="-122.994515972" visible="true"><tag k="addr:housenumber" v="169"/><tag k="addr:postcode" v="97124"/><tag k="addr:city" v="Hillsboro"/><tag k="addr:street" v="Northeast Skylar Street"/></node>
<node id="-16" lat="45.543566645" lon="-122.994484228" visible="true"><tag k="addr:housenumber" v="174"/><tag k="addr:postcode" v="97124"/><tag k="addr:city" v="Hillsboro"/><tag k="addr:street" v="Northeast Skylar Street"/></node>
<node id="-17" lat="45.543569315" lon="-122.994398028" visible="true"><tag k="addr:housenumber" v="180"/><tag k="addr:postcode" v="97124"/><tag k="addr:city" v="Hillsboro"/><tag k="addr:street" v="Northeast Skylar Street"/></node>
<node id="-18" lat="45.547211939" lon="-122.995993034" visible="true"><tag k="addr:housenumber" v="3797"/><tag k="addr:postcode" v="97124"/><tag k="addr:city" v="Hillsboro"/><tag k="addr:street" v="Northwest 1st Court"/></node>
<node id="-19" lat="45.54721543" lon="-122.995992205" visible="true"><tag k="addr:housenumber" v="3798"/><tag k="addr:postcode" v="97124"/><tag k="addr:city" v="Hillsboro"/><tag k="addr:street" v="Northwest 1st Court"/></node>
<node id="-20" lat="45.545712986" lon="-122.997596044" visible="true"><tag k="addr:housenumber" v="3622"/><tag k="addr:postcode" v="97124"/><tag k="addr:city" v="Hillsboro"/><tag k="addr:street" v="Northwest 2nd Avenue"/></node>
<node id="-21" lat="45.547762606" lon="-122.997989031" visible="true"><tag k="addr:housenumber" v="3813"/><tag k="addr:postcode" v="97124"/><tag k="addr:city" v="Hillsboro"/><tag k="addr:street" v="Northwest 2nd Avenue"/></node>
<node id="-22" lat="45.54516571" lon="-122.998628099" visible="true"><tag k="addr:housenumber" v="3462"/><tag k="addr:postcode" v="97124"/><tag k="addr:city" v="Hillsboro"/><tag k="addr:street" v="Northwest 313th Avenue"/></node>
<node id="-23" lat="45.545167217" lon="-122.998633437" visible="true"><tag k="addr:housenumber" v="3470"/><tag k="addr:postcode" v="97124"/><tag k="addr:city" v="Hillsboro"/><tag k="addr:street" v="Northwest 313th Avenue"/></node>
<node id="-24" lat="45.546045365" lon="-122.999121257" visible="true"><tag k="addr:housenumber" v="3585"/><tag k="addr:postcode" v="97124"/><tag k="addr:city" v="Hillsboro"/><tag k="addr:street" v="Northwest 313th Avenue"/></node>
<node id="-25" lat="45.54575666" lon="-122.997544593" visible="true"><tag k="addr:housenumber" v="3590"/><tag k="addr:postcode" v="97124"/><tag k="addr:city" v="Hillsboro"/><tag k="addr:street" v="Northwest 313th Avenue"/></node>
<node id="-26" lat="45.54687904" lon="-122.999124502" visible="true"><tag k="addr:housenumber" v="3701"/><tag k="addr:postcode" v="97124"/><tag k="addr:city" v="Hillsboro"/><tag k="addr:street" v="Northwest 313th Avenue"/></node>
<node id="-27" lat="45.546882249" lon="-122.999128294" visible="true"><tag k="addr:housenumber" v="3715"/><tag k="addr:postcode" v="97124"/><tag k="addr:city" v="Hillsboro"/><tag k="addr:street" v="Northwest 313th Avenue"/></node>
<node id="-28" lat="45.547044982" lon="-122.99845491" visible="true"><tag k="addr:housenumber" v="3730"/><tag k="addr:postcode" v="97124"/><tag k="addr:city" v="Hillsboro"/><tag k="addr:street" v="Northwest 313th Avenue"/></node>
<node id="-29" lat="45.547092492" lon="-122.998533271" visible="true"><tag k="addr:housenumber" v="3742"/><tag k="addr:postcode" v="97124"/><tag k="addr:city" v="Hillsboro"/><tag k="addr:street" v="Northwest 313th Avenue"/></node>
<node id="-30" lat="45.547716852" lon="-122.998076843" visible="true"><tag k="addr:housenumber" v="3840"/><tag k="addr:postcode" v="97124"/><tag k="addr:city" v="Hillsboro"/><tag k="addr:street" v="Northwest 313th Avenue"/></node>
<node id="-31" lat="45.542039028" lon="-122.998559406" visible="true"><tag k="addr:housenumber" v="2421"/><tag k="addr:postcode" v="97124"/><tag k="addr:city" v="Hillsboro"/><tag k="addr:street" v="Northwest 3rd Avenue"/></node>
<node id="-32" lat="45.542138099" lon="-122.997958369" visible="true"><tag k="addr:housenumber" v="2422"/><tag k="addr:postcode" v="97124"/><tag k="addr:city" v="Hillsboro"/><tag k="addr:street" v="Northwest 3rd Avenue"/></node>
<node id="-33" lat="45.542093009" lon="-122.998687642" visible="true"><tag k="addr:housenumber" v="2423"/><tag k="addr:postcode" v="97124"/><tag k="addr:city" v="Hillsboro"/><tag k="addr:street" v="Northwest 3rd Avenue"/></node>
<node id="-34" lat="45.542041364" lon="-122.997973149" visible="true"><tag k="addr:housenumber" v="2424"/><tag k="addr:postcode" v="97124"/><tag k="addr:city" v="Hillsboro"/><tag k="addr:street" v="Northwest 3rd Avenue"/></node>
<node id="-35" lat="45.542049867" lon="-122.998950165" visible="true"><tag k="addr:housenumber" v="2443"/><tag k="addr:postcode" v="97124"/><tag k="addr:city" v="Hillsboro"/><tag k="addr:street" v="Northwest 3rd Avenue"/></node>
<node id="-36" lat="45.542099744" lon="-122.999074638" visible="true"><tag k="addr:housenumber" v="2445"/><tag k="addr:postcode" v="97124"/><tag k="addr:city" v="Hillsboro"/><tag k="addr:street" v="Northwest 3rd Avenue"/></node>
<node id="-37" lat="45.542316194" lon="-122.998726298" visible="true"><tag k="addr:housenumber" v="2487"/><tag k="addr:postcode" v="97124"/><tag k="addr:city" v="Hillsboro"/><tag k="addr:street" v="Northwest 3rd Avenue"/></node>
<node id="-38" lat="45.542345842" lon="-122.99860408" visible="true"><tag k="addr:housenumber" v="2489"/><tag k="addr:postcode" v="97124"/><tag k="addr:city" v="Hillsboro"/><tag k="addr:street" v="Northwest 3rd Avenue"/></node>
<node id="-39" lat="45.542043417" lon="-122.999776645" visible="true"><tag k="addr:housenumber" v="2453"/><tag k="addr:postcode" v="97124"/><tag k="addr:city" v="Hillsboro"/><tag k="addr:street" v="Northwest 4th Avenue"/></node>
<node id="-40" lat="45.542076534" lon="-123.000405782" visible="true"><tag k="addr:housenumber" v="2454"/><tag k="addr:postcode" v="97124"/><tag k="addr:city" v="Hillsboro"/><tag k="addr:street" v="Northwest 4th Avenue"/></node>
<node id="-41" lat="45.542116392" lon="-122.99977156" visible="true"><tag k="addr:housenumber" v="2455"/><tag k="addr:postcode" v="97124"/><tag k="addr:city" v="Hillsboro"/><tag k="addr:street" v="Northwest 4th Avenue"/></node>
<node id="-42" lat="45.542123202" lon="-123.000519944" visible="true"><tag k="addr:housenumber" v="2456"/><tag k="addr:postcode" v="97124"/><tag k="addr:city" v="Hillsboro"/><tag k="addr:street" v="Northwest 4th Avenue"/></node>
<node id="-43" lat="45.542099526" lon="-122.99932486" visible="true"><tag k="addr:housenumber" v="2465"/><tag k="addr:postcode" v="97124"/><tag k="addr:city" v="Hillsboro"/><tag k="addr:street" v="Northwest 4th Avenue"/></node>
<node id="-44" lat="45.542073473" lon="-123.000806632" visible="true"><tag k="addr:housenumber" v="2466"/><tag k="addr:postcode" v="97124"/><tag k="addr:city" v="Hillsboro"/><tag k="addr:street" v="Northwest 4th Avenue"/></node>
<node id="-45" lat="45.542057685" lon="-122.999456688" visible="true"><tag k="addr:housenumber" v="2467"/><tag k="addr:postcode" v="97124"/><tag k="addr:city" v="Hillsboro"/><tag k="addr:street" v="Northwest 4th Avenue"/></node>
<node id="-46" lat="45.542133246" lon="-123.000929223" visible="true"><tag k="addr:housenumber" v="2468"/><tag k="addr:postcode" v="97124"/><tag k="addr:city" v="Hillsboro"/><tag k="addr:street" v="Northwest 4th Avenue"/></node>
<node id="-47" lat="45.542362949" lon="-122.999458335" visible="true"><tag k="addr:housenumber" v="2477"/><tag k="addr:postcode" v="97124"/><tag k="addr:city" v="Hillsboro"/><tag k="addr:street" v="Northwest 4th Avenue"/></node>
<node id="-48" lat="45.542390931" lon="-123.000809915" visible="true"><tag k="addr:housenumber" v="2478"/><tag k="addr:postcode" v="97124"/><tag k="addr:city" v="Hillsboro"/><tag k="addr:street" v="Northwest 4th Avenue"/></node>
<node id="-49" lat="45.542337652" lon="-122.999332947" visible="true"><tag k="addr:housenumber" v="2479"/><tag k="addr:postcode" v="97124"/><tag k="addr:city" v="Hillsboro"/><tag k="addr:street" v="Northwest 4th Avenue"/></node>
<node id="-50" lat="45.542369253" lon="-123.000921346" visible="true"><tag k="addr:housenumber" v="2480"/><tag k="addr:postcode" v="97124"/><tag k="addr:city" v="Hillsboro"/><tag k="addr:street" v="Northwest 4th Avenue"/></node>
<node id="-51" lat="45.542315712" lon="-122.999704236" visible="true"><tag k="addr:housenumber" v="2489"/><tag k="addr:postcode" v="97124"/><tag k="addr:city" v="Hillsboro"/><tag k="addr:street" v="Northwest 4th Avenue"/></node>
<node id="-52" lat="45.542389302" lon="-123.000403842" visible="true"><tag k="addr:housenumber" v="2490"/><tag k="addr:postcode" v="97124"/><tag k="addr:city" v="Hillsboro"/><tag k="addr:street" v="Northwest 4th Avenue"/></node>
<node id="-53" lat="45.542341441" lon="-122.999852325" visible="true"><tag k="addr:housenumber" v="2491"/><tag k="addr:postcode" v="97124"/><tag k="addr:city" v="Hillsboro"/><tag k="addr:street" v="Northwest 4th Avenue"/></node>
<node id="-54" lat="45.542362219" lon="-123.000510587" visible="true"><tag k="addr:housenumber" v="2492"/><tag k="addr:postcode" v="97124"/><tag k="addr:city" v="Hillsboro"/><tag k="addr:street" v="Northwest 4th Avenue"/></node>
<node id="-55" lat="45.543484516" lon="-122.99617334" visible="true"><tag k="addr:housenumber" v="133"/><tag k="addr:postcode" v="97124"/><tag k="addr:city" v="Hillsboro"/><tag k="addr:street" v="Northwest Angela Street"/></node>
<node id="-56" lat="45.546148957" lon="-122.995925775" visible="true"><tag k="addr:housenumber" v="102"/><tag k="addr:postcode" v="97124"/><tag k="addr:city" v="Hillsboro"/><tag k="addr:street" v="Northwest Camp Ireland Street"/></node>
<node id="-57" lat="45.546894949" lon="-122.99826855" visible="true"><tag k="addr:housenumber" v="253"/><tag k="addr:postcode" v="97124"/><tag k="addr:city" v="Hillsboro"/><tag k="addr:street" v="Northwest Camp Ireland Street"/></node>
<node id="-58" lat="45.546896615" lon="-122.998275847" visible="true"><tag k="addr:housenumber" v="277"/><tag k="addr:postcode" v="97124"/><tag k="addr:city" v="Hillsboro"/><tag k="addr:street" v="Northwest Camp Ireland Street"/></node>
<node id="-59" lat="45.546019596" lon="-122.999209619" visible="true"><tag k="addr:housenumber" v="302"/><tag k="addr:postcode" v="97124"/><tag k="addr:city" v="Hillsboro"/><tag k="addr:street" v="Northwest Donegal Place"/></node>
<node id="-60" lat="45.542266815" lon="-122.996083682" visible="true"><tag k="addr:housenumber" v="2473"/><tag k="addr:postcode" v="97124"/><tag k="addr:city" v="Hillsboro"/><tag k="addr:street" v="Northwest Glencoe Road"/></node>
<node id="-61" lat="45.542318151" lon="-122.99608397" visible="true"><tag k="addr:housenumber" v="2475"/><tag k="addr:postcode" v="97124"/><tag k="addr:city" v="Hillsboro"/><tag k="addr:street" v="Northwest Glencoe Road"/></node>
<node id="-62" lat="45.542001298" lon="-122.996581625" visible="true"><tag k="addr:housenumber" v="2953"/><tag k="addr:postcode" v="97124"/><tag k="addr:city" v="Hillsboro"/><tag k="addr:street" v="Northwest Glencoe Road"/></node>
<node id="-63" lat="45.54204801" lon="-122.996580117" visible="true"><tag k="addr:housenumber" v="2955"/><tag k="addr:postcode" v="97124"/><tag k="addr:city" v="Hillsboro"/><tag k="addr:street" v="Northwest Glencoe Road"/></node>
<node id="-64" lat="45.542010876" lon="-122.996337681" visible="true"><tag k="addr:housenumber" v="2991"/><tag k="addr:postcode" v="97124"/><tag k="addr:city" v="Hillsboro"/><tag k="addr:street" v="Northwest Glencoe Road"/></node>
<node id="-65" lat="45.542047997" lon="-122.996325959" visible="true"><tag k="addr:housenumber" v="2993"/><tag k="addr:postcode" v="97124"/><tag k="addr:city" v="Hillsboro"/><tag k="addr:street" v="Northwest Glencoe Road"/></node>
<node id="-66" lat="45.542980581" lon="-122.995979428" visible="true"><tag k="addr:housenumber" v="3175"/><tag k="addr:postcode" v="97124"/><tag k="addr:city" v="Hillsboro"/><tag k="addr:street" v="Northwest Glencoe Road"/></node>
<node id="-67" lat="45.543052881" lon="-122.996160534" visible="true"><tag k="addr:housenumber" v="3183"/><tag k="addr:postcode" v="97124"/><tag k="addr:city" v="Hillsboro"/><tag k="addr:street" v="Northwest Glencoe Road"/></node>
<node id="-68" lat="45.542999274" lon="-122.996261072" visible="true"><tag k="addr:housenumber" v="3187"/><tag k="addr:postcode" v="97124"/><tag k="addr:city" v="Hillsboro"/><tag k="addr:street" v="Northwest Glencoe Road"/></node>
<node id="-69" lat="45.543003562" lon="-122.996384151" visible="true"><tag k="addr:housenumber" v="3191"/><tag k="addr:postcode" v="97124"/><tag k="addr:city" v="Hillsboro"/><tag k="addr:street" v="Northwest Glencoe Road"/></node>
<node id="-70" lat="45.542995465" lon="-122.996518152" visible="true"><tag k="addr:housenumber" v="3195"/><tag k="addr:postcode" v="97124"/><tag k="addr:city" v="Hillsboro"/><tag k="addr:street" v="Northwest Glencoe Road"/></node>
<node id="-71" lat="45.543063216" lon="-122.996617102" visible="true"><tag k="addr:housenumber" v="3199"/><tag k="addr:postcode" v="97124"/><tag k="addr:city" v="Hillsboro"/><tag k="addr:street" v="Northwest Glencoe Road"/></node>
<node id="-72" lat="45.543058954" lon="-122.996736896" visible="true"><tag k="addr:housenumber" v="3207"/><tag k="addr:postcode" v="97124"/><tag k="addr:city" v="Hillsboro"/><tag k="addr:street" v="Northwest Glencoe Road"/></node>
<node id="-73" lat="45.543064581" lon="-122.996837464" visible="true"><tag k="addr:housenumber" v="3211"/><tag k="addr:postcode" v="97124"/><tag k="addr:city" v="Hillsboro"/><tag k="addr:street" v="Northwest Glencoe Road"/></node>
<node id="-74" lat="45.543063959" lon="-122.996951395" visible="true"><tag k="addr:housenumber" v="3215"/><tag k="addr:postcode" v="97124"/><tag k="addr:city" v="Hillsboro"/><tag k="addr:street" v="Northwest Glencoe Road"/></node>
<node id="-75" lat="45.543486203" lon="-122.996173913" visible="true"><tag k="addr:housenumber" v="3235"/><tag k="addr:postcode" v="97124"/><tag k="addr:city" v="Hillsboro"/><tag k="addr:street" v="Northwest Glencoe Road"/></node>
<node id="-76" lat="45.548454832" lon="-122.995040749" visible="true"><tag k="addr:housenumber" v="3290"/><tag k="addr:postcode" v="97124"/><tag k="addr:city" v="Hillsboro"/><tag k="addr:street" v="Northwest Glencoe Road"/></node>
<node id="-77" lat="45.54615243" lon="-122.995930015" visible="true"><tag k="addr:housenumber" v="3615"/><tag k="addr:postcode" v="97124"/><tag k="addr:city" v="Hillsboro"/><tag k="addr:street" v="Northwest Glencoe Road"/></node>
<node id="-78" lat="45.544271918" lon="-122.996907966" visible="true"><tag k="addr:housenumber" v="144"/><tag k="addr:postcode" v="97124"/><tag k="addr:city" v="Hillsboro"/><tag k="addr:street" v="Northwest Lenox Street"/></node>
<node id="-79" lat="45.544275664" lon="-122.996911775" visible="true"><tag k="addr:housenumber" v="31080"/><tag k="addr:postcode" v="97124"/><tag k="addr:city" v="Hillsboro"/><tag k="addr:street" v="Northwest Lenox Street"/></node>
<node id="-80" lat="45.546888326" lon="-122.999132192" visible="true"><tag k="addr:housenumber" v="304"/><tag k="addr:postcode" v="97124"/><tag k="addr:city" v="Hillsboro"/><tag k="addr:street" v="Northwest Malia Lane"/></node>
<node id="-81" lat="45.548320088" lon="-123.000139712" visible="true"><tag k="addr:housenumber" v="31400"/><tag k="addr:postcode" v="97124"/><tag k="addr:city" v="Hillsboro"/><tag k="addr:street" v="Northwest Milne Street"/></node>
<node id="-82" lat="45.542294881" lon="-122.996456032" visible="true"><tag k="addr:housenumber" v="140"/><tag k="addr:postcode" v="97124"/><tag k="addr:city" v="Hillsboro"/><tag k="addr:street" v="Northwest Scott Street"/></node>
<node id="-83" lat="45.542278062" lon="-122.996594934" visible="true"><tag k="addr:housenumber" v="142"/><tag k="addr:postcode" v="97124"/><tag k="addr:city" v="Hillsboro"/><tag k="addr:street" v="Northwest Scott Street"/></node>
<node id="-84" lat="45.542164446" lon="-122.996764958" visible="true"><tag k="addr:housenumber" v="162"/><tag k="addr:postcode" v="97124"/><tag k="addr:city" v="Hillsboro"/><tag k="addr:street" v="Northwest Scott Street"/></node>
<node id="-85" lat="45.542060016" lon="-122.996791251" visible="true"><tag k="addr:housenumber" v="164"/><tag k="addr:postcode" v="97124"/><tag k="addr:city" v="Hillsboro"/><tag k="addr:street" v="Northwest Scott Street"/></node>
<node id="-86" lat="45.542176619" lon="-122.997042624" visible="true"><tag k="addr:housenumber" v="184"/><tag k="addr:postcode" v="97124"/><tag k="addr:city" v="Hillsboro"/><tag k="addr:street" v="Northwest Scott Street"/></node>
<node id="-87" lat="45.542071556" lon="-122.997077185" visible="true"><tag k="addr:housenumber" v="186"/><tag k="addr:postcode" v="97124"/><tag k="addr:city" v="Hillsboro"/><tag k="addr:street" v="Northwest Scott Street"/></node>
<node id="-88" lat="45.542116008" lon="-122.997370374" visible="true"><tag k="addr:housenumber" v="226"/><tag k="addr:postcode" v="97124"/><tag k="addr:city" v="Hillsboro"/><tag k="addr:street" v="Northwest Scott Street"/></node>
<node id="-89" lat="45.542079996" lon="-122.997475028" visible="true"><tag k="addr:housenumber" v="228"/><tag k="addr:postcode" v="97124"/><tag k="addr:city" v="Hillsboro"/><tag k="addr:street" v="Northwest Scott Street"/></node>
<node id="-90" lat="45.542075433" lon="-122.99763588" visible="true"><tag k="addr:housenumber" v="240"/><tag k="addr:postcode" v="97124"/><tag k="addr:city" v="Hillsboro"/><tag k="addr:street" v="Northwest Scott Street"/></node>
<node id="-91" lat="45.542069157" lon="-122.997770948" visible="true"><tag k="addr:housenumber" v="242"/><tag k="addr:postcode" v="97124"/><tag k="addr:city" v="Hillsboro"/><tag k="addr:street" v="Northwest Scott Street"/></node>
<node id="-92" lat="45.54832125" lon="-123.000136104" visible="true"><tag k="addr:housenumber" v="369"/><tag k="addr:postcode" v="97124"/><tag k="addr:city" v="Hillsboro"/><tag k="addr:street" v="Northwest Wildwood Street"/></node>
</osm>