<?xml version="1.0"?>
<osm version="0.6" upload="false" generator="uvmogr2osm">
<node id="-1" lat="45.522767127" lon="-122.987750648" visible="true"><tag k="addr:housenumber" v="203"/><tag k="addr:postcode" v="97123"/><tag k="addr:city" v="Hillsboro"/><tag k="addr:street" v="East Main Street"/></node>
<node id="-2" lat="45.522765877" lon="-122.98764026" visible="true"><tag k="addr:housenumber" v="207"/><tag k="addr:postcode" v="97123"/><tag k="addr:city" v="Hillsboro"/><tag k="addr:street" v="East Main Street"/></node>
<node id="-3" lat="45.522766878" lon="-122.987548212" visible="true"><tag k="addr:housenumber" v="211"/><tag k="addr:postcode" v="97123"/><tag k="addr:city" v="Hillsboro"/><tag k="addr:street" v="East Main Street"/></node>
<node id="-4" lat="45.522770395" lon="-122.987460263" visible="true"><tag k="addr:housenumber" v="217"/><tag k="addr:postcode" v="97123"/><tag k="addr:city" v="Hillsboro"/><tag k="addr:street" v="East Main Street"/></node>
<node id="-5" lat="45.522509521" lon="-122.984759202" visible="true"><tag k="addr:housenumber" v="370"/><tag k="addr:postcode" v="97123"/><tag k="addr:city" v="Hillsboro"/><tag k="addr:street" v="East Main Street"/></node>
<node id="-6" lat="45.522512213" lon="-122.984666643" visible="true"><tag k="addr:housenumber" v="380"/><tag k="addr:postcode" v="97123"/><tag k="addr:city" v="Hillsboro"/><tag k="addr:street" v="East Main Street"/></node>
<node id="-7" lat="45.52250424" lon="-122.984569862" visible="true"><tag k="addr:housenumber" v="390"/><tag k="addr:postcode" v="97123"/><tag k="addr:city" v="Hillsboro"/><tag k="addr:street" v="East Main Street"/></node>
<node id="-8" lat="45.522839515" lon="-122.982321194" visible="true"><tag k="addr:housenumber" v="527"/><tag k="addr:postcode" v="97123"/><tag k="addr:city" v="Hillsboro"/><tag k="addr:street" v="East Main Street"/></node>
<node id="-9" lat="45.522835103" lon="-122.982037171" visible="true"><tag k="addr:housenumber" v="533"/><tag k="addr:postcode" v="97123"/><tag k="addr:city" v="Hillsboro"/><tag k="addr:street" v="East Main Street"/></node>
<node id="-10" lat="45.522883682" lon="-122.981948713" visible="true"><tag k="addr:housenumber" v="545"/><tag k="addr:postcode" v="97123"/><tag k="addr:city" v="Hillsboro"/><tag k="addr:street" v="East Main Street"/></node>
<node id="-11" lat="45.523673993" lon="-122.990025042" visible="true"><tag k="addr:housenumber" v="169"/><tag k="addr:postcode" v="97124"/><tag k="addr:city" v="Hillsboro"/><tag k="addr:street" v="North 1st Avenue"/></node>
<node id="-12" lat="45.524268316" lon="-122.989451199" visible="true"><tag k="addr:housenumber" v="222"/><tag k="addr:postcode" v="97124"/><tag k="addr:city" v="Hillsboro"/><tag k="addr:street" v="North 1st Avenue"/></node>
<node id="-13" lat="45.530427557" lon="-122.662363566" visible="true"><tag k="addr:housenumber" v="1020"/><tag k="addr:postcode" v="97232"/><tag k="addr:city" v="Portland"/><tag k="addr:street" v="Northeast 2nd Avenue"/></node>
<node id="-14" lat="45.52355171" lon="-122.987754385" visible="true"><tag k="addr:housenumber" v="156"/><tag k="addr:postcode" v="97124"/><tag k="addr:city" v="Hillsboro"/><tag k="addr:street" v="Northeast 2nd Avenue"/></node>
<node id="-15" lat="45.523582101" lon="-122.987753435" visible="true"><tag k="addr:housenumber" v="158"/><tag k="addr:postcode" v="97124"/><tag k="addr:city" v="Hillsboro"/><tag k="addr:street" v="Northeast 2nd Avenue"/></node>
<node id="-16" lat="45.526435217" lon="-122.988213921" visible="true"><tag k="addr:housenumber" v="403"/><tag k="addr:postcode" v="97124"/><tag k="addr:city" v="Hillsboro"/><tag k="addr:street" v="Northeast 2nd Avenue"/></node>
<node id="-17" lat="45.523567668" lon="-122.985617153" visible="true"><tag k="addr:housenumber" v="164"/><tag k="addr:postcode" v="97124"/><tag k="addr:city" v="Hillsboro"/><tag k="addr:street" v="Northeast 3rd Avenue"/></node>
<node id="-18" lat="45.5235655" lon="-122.985624227" visible="true"><tag k="addr:housenumber" v="168"/><tag k="addr:postcode" v="97124"/><tag k="addr:city" v="Hillsboro"/><tag k="addr:street" v="Northeast 3rd Avenue"/></node>
<node id="-19" lat="45.52645876" lon="-122.984526284" visible="true"><tag k="addr:housenumber" v="405"/><tag k="addr:postcode" v="97124"/><tag k="addr:city" v="Hillsboro"/><tag k="addr:street" v="Northeast 4th Avenue"/></node>
<node id="-20" lat="45.52416139" lon="-122.98231643" visible="true"><tag k="addr:housenumber" v="204"/><tag k="addr:postcode" v="97124"/><tag k="addr:city" v="Hillsboro"/><tag k="addr:street" v="Northeast 5th Avenue"/></node>
<node id="-21" lat="45.524096895" lon="-122.982779547" visible="true"><tag k="addr:housenumber" v="209"/><tag k="addr:postcode" v="97124"/><tag k="addr:city" v="Hillsboro"/><tag k="addr:street" v="Northeast 5th Avenue"/></node>
<node id="-22" lat="45.524186681" lon="-122.982289902" visible="true"><tag k="addr:housenumber" v="210"/><tag k="addr:postcode" v="97124"/><tag k="addr:city" v="Hillsboro"/><tag k="addr:street" v="Northeast 5th Avenue"/></node>
<node id="-23" lat="45.524166677" lon="-122.982786257" visible="true"><tag k="addr:housenumber" v="211"/><tag k="addr:postcode" v="97124"/><tag k="addr:city" v="Hillsboro"/><tag k="addr:street" v="Northeast 5th Avenue"/></node>
<node id="-24" lat="45.524364374" lon="-122.982270846" visible="true"><tag k="addr:housenumber" v="224"/><tag k="addr:postcode" v="97124"/><tag k="addr:city" v="Hillsboro"/><tag k="addr:street" v="Northeast 5th Avenue"/></node>
<node id="-25" lat="45.52436148" lon="-122.982264451" visible="true"><tag k="addr:housenumber" v="228"/><tag k="addr:postcode" v="97124"/><tag k="addr:city" v="Hillsboro"/><tag k="addr:street" v="Northeast 5th Avenue"/></node>
<node id="-26" lat="45.524364415" lon="-122.982266892" visible="true"><tag k="addr:housenumber" v="232"/><tag k="addr:postcode" v="97124"/><tag k="addr:city" v="Hillsboro"/><tag k="addr:street" v="Northeast 5th Avenue"/></node>
<node id="-27" lat="45.526440792" lon="-122.988518868" visible="true"><tag k="addr:housenumber" v="155"/><tag k="addr:postcode" v="97124"/><tag k="addr:city" v="Hillsboro"/><tag k="addr:street" v="Northeast Edison Street"/></node>
<node id="-28" lat="45.526532262" lon="-122.988497868" visible="true"><tag k="addr:housenumber" v="155 1/2"/><tag k="addr:postcode" v="97124"/><tag k="addr:city" v="Hillsboro"/><tag k="addr:street" v="Northeast Edison Street"/></node>
<node id="-29" lat="45.526478333" lon="-122.988490903" visible="true"><tag k="addr:housenumber" v="161"/><tag k="addr:postcode" v="97124"/><tag k="addr:city" v="Hillsboro"/><tag k="addr:street" v="Northeast Edison Street"/></node>
<node id="-30" lat="45.526431612" lon="-122.988209186" visible="true"><tag k="addr:housenumber" v="187"/><tag k="addr:postcode" v="97124"/><tag k="addr:city" v="Hillsboro"/><tag k="addr:street" v="Northeast Edison Street"/></node>
<node id="-31" lat="45.52642663" lon="-122.988206758" visible="true"><tag k="addr:housenumber" v="193"/><tag k="addr:postcode" v="97124"/><tag k="addr:city" v="Hillsboro"/><tag k="addr:street" v="Northeast Edison Street"/></node>
<node id="-32" lat="45.526384801" lon="-122.984529779" visible="true"><tag k="addr:housenumber" v="375"/><tag k="addr:postcode" v="97124"/><tag k="addr:city" v="Hillsboro"/><tag k="addr:street" v="Northeast Edison Street"/></node>
<node id="-33" lat="45.526383761" lon="-122.980540216" visible="true"><tag k="addr:housenumber" v="605"/><tag k="addr:postcode" v="97124"/><tag k="addr:city" v="Hillsboro"/><tag k="addr:street" v="Northeast Edison Street"/></node>
<node id="-34" lat="45.526391049" lon="-122.98034692" visible="true"><tag k="addr:housenumber" v="611"/><tag k="addr:postcode" v="97124"/><tag k="addr:city" v="Hillsboro"/><tag k="addr:street" v="Northeast Edison Street"/></node>
<node id="-35" lat="45.530429267" lon="-122.662368238" visible="true"><tag k="addr:housenumber" v="303"/><tag k="addr:postcode" v="97232"/><tag k="addr:city" v="Portland"/><tag k="addr:street" v="Northeast Holladay Street"/></node>
<node id="-36" lat="45.530423803" lon="-122.662363485" visible="true"><tag k="addr:housenumber" v="307"/><tag k="addr:postcode" v="97232"/><tag k="addr:city" v="Portland"/><tag k="addr:street" v="Northeast Holladay Street"/></node>
<node id="-37" lat="45.525328453" lon="-122.983824451" visible="true"><tag k="addr:housenumber" v="417"/><tag k="addr:postcode" v="97124"/><tag k="addr:city" v="Hillsboro"/><tag k="addr:street" v="Northeast Jackson Street"/></node>
<node id="-38" lat="45.525331693" lon="-122.983822948" visible="true"><tag k="addr:housenumber" v="421"/><tag k="addr:postcode" v="97124"/><tag k="addr:city" v="Hillsboro"/><tag k="addr:street" v="Northeast Jackson Street"/></node>
<node id="-39" lat="45.5253275" lon="-122.983819935" visible="true"><tag k="addr:housenumber" v="421-A"/><tag k="addr:postcode" v="97124"/><tag k="addr:city" v="Hillsboro"/><tag k="addr:street" v="Northeast Jackson Street"/></node>
<node id="-40" lat="45.524059834" lon="-122.989213052" visible="true"><tag k="addr:housenumber" v="111"/><tag k="addr:postcode" v="97124"/><tag k="addr:city" v="Hillsboro"/><tag k="addr:street" v="Northeast Lincoln Street"/></node>
<node id="-41" lat="45.524026942" lon="-122.982783062" visible="true"><tag k="addr:housenumber" v="473"/><tag k="addr:postcode" v="97124"/><tag k="addr:city" v="Hillsboro"/><tag k="addr:street" v="Northeast Lincoln Street"/></node>
<node id="-42" lat="45.524083183" lon="-122.982267623" visible="true"><tag k="addr:housenumber" v="509"/><tag k="addr:postcode" v="97124"/><tag k="addr:city" v="Hillsboro"/><tag k="addr:street" v="Northeast Lincoln Street"/></node>
<node id="-43" lat="45.524057484" lon="-122.982201327" visible="true"><tag k="addr:housenumber" v="511"/><tag k="addr:postcode" v="97124"/><tag k="addr:city" v="Hillsboro"/><tag k="addr:street" v="Northeast Lincoln Street"/></node>
<node id="-44" lat="45.523793984" lon="-122.990327687" visible="true"><tag k="addr:housenumber" v="160"/><tag k="addr:postcode" v="97124"/><tag k="addr:city" v="Hillsboro"/><tag k="addr:street" v="Northwest Lincoln Street"/></node>
<node id="-45" lat="45.521086567" lon="-122.988413805" visible="true"><tag k="addr:housenumber" v="205"/><tag k="addr:postcode" v="97123"/><tag k="addr:city" v="Hillsboro"/><tag k="addr:street" v="Southeast 2nd Avenue"/></node>
<node id="-46" lat="45.521116673" lon="-122.985911115" visible="true"><tag k="addr:housenumber" v="302"/><tag k="addr:postcode" v="97123"/><tag k="addr:city" v="Hillsboro"/><tag k="addr:street" v="Southeast 3rd Avenue"/></node>
<node id="-47" lat="45.522478081" lon="-122.984566682" visible="true"><tag k="addr:housenumber" v="105"/><tag k="addr:postcode" v="97123"/><tag k="addr:city" v="Hillsboro"/><tag k="addr:street" v="Southeast 4th Avenue"/></node>
<node id="-48" lat="45.522424355" lon="-122.984558098" visible="true"><tag k="addr:housenumber" v="109"/><tag k="addr:postcode" v="97123"/><tag k="addr:city" v="Hillsboro"/><tag k="addr:street" v="Southeast 4th Avenue"/></node>
<node id="-49" lat="45.522373037" lon="-122.984564814" visible="true"><tag k="addr:housenumber" v="117"/><tag k="addr:postcode" v="97123"/><tag k="addr:city" v="Hillsboro"/><tag k="addr:street" v="Southeast 4th Avenue"/></node>
<node id="-50" lat="45.522315431" lon="-122.984562476" visible="true"><tag k="addr:housenumber" v="121"/><tag k="addr:postcode" v="97123"/><tag k="addr:city" v="Hillsboro"/><tag k="addr:street" v="Southeast 4th Avenue"/></node>
<node id="-51" lat="45.522268292" lon="-122.984556901" visible="true"><tag k="addr:housenumber" v="129"/><tag k="addr:postcode" v="97123"/><tag k="addr:city" v="Hillsboro"/><tag k="addr:street" v="Southeast 4th Avenue"/></node>
<node id="-52" lat="45.522192569" lon="-122.984564786" visible="true"><tag k="addr:housenumber" v="135"/><tag k="addr:postcode" v="97123"/><tag k="addr:city" v="Hillsboro"/><tag k="addr:street" v="Southeast 4th Avenue"/></node>
<node id="-53" lat="45.522140769" lon="-122.984574041" visible="true"><tag k="addr:housenumber" v="141"/><tag k="addr:postcode" v="97123"/><tag k="addr:city" v="Hillsboro"/><tag k="addr:street" v="Southeast 4th Avenue"/></node>
<node id="-54" lat="45.522081977" lon="-122.984571649" visible="true"><tag k="addr:housenumber" v="147"/><tag k="addr:postcode" v="97123"/><tag k="addr:city" v="Hillsboro"/><tag k="addr:street" v="Southeast 4th Avenue"/></node>
<node id="-55" lat="45.522018249" lon="-122.984570815" visible="true"><tag k="addr:housenumber" v="153"/><tag k="addr:postcode" v="97123"/><tag k="addr:city" v="Hillsboro"/><tag k="addr:street" v="Southeast 4th Avenue"/></node>
<node id="-56" lat="45.52116302" lon="-122.984075728" visible="true"><tag k="addr:housenumber" v="202"/><tag k="addr:postcode" v="97123"/><tag k="addr:city" v="Hillsboro"/><tag k="addr:street" v="Southeast 4th Avenue"/></node>
<node id="-57" lat="45.521165828" lon="-122.984080053" visible="true"><tag k="addr:housenumber" v="210"/><tag k="addr:postcode" v="97123"/><tag k="addr:city" v="Hillsboro"/><tag k="addr:street" v="Southeast 4th Avenue"/></node>
<node id="-58" lat="45.520290516" lon="-122.984175474" visible="true"><tag k="addr:housenumber" v="268"/><tag k="addr:postcode" v="97123"/><tag k="addr:city" v="Hillsboro"/><tag k="addr:street" v="Southeast 4th Avenue"/></node>
<node id="-59" lat="45.521149029" lon="-122.982286003" visible="true"><tag k="addr:housenumber" v="208"/><tag k="addr:postcode" v="97123"/><tag k="addr:city" v="Hillsboro"/><tag k="addr:street" v="Southeast 5th Avenue"/></node>
<node id="-60" lat="45.520214204" lon="-122.984236311" visible="true"><tag k="addr:housenumber" v="403"/><tag k="addr:postcode" v="97123"/><tag k="addr:city" v="Hillsboro"/><tag k="addr:street" v="Southeast Baseline Street"/></node>
<node id="-61" lat="45.520236996" lon="-122.982208742" visible="true"><tag k="addr:housenumber" v="507"/><tag k="addr:postcode" v="97123"/><tag k="addr:city" v="Hillsboro"/><tag k="addr:street" v="Southeast Baseline Street"/></node>
<node id="-62" lat="45.52023378" lon="-122.982212594" visible="true"><tag k="addr:housenumber" v="527"/><tag k="addr:postcode" v="97123"/><tag k="addr:city" v="Hillsboro"/><tag k="addr:street" v="Southeast Baseline Street"/></node>
<node id="-63" lat="45.52039384" lon="-122.981617881" visible="true"><tag k="addr:housenumber" v="541"/><tag k="addr:postcode" v="97123"/><tag k="addr:city" v="Hillsboro"/><tag k="addr:street" v="Southeast Baseline Street"/></node>
<node id="-64" lat="45.520383979" lon="-122.981650423" visible="true"><tag k="addr:housenumber" v="545"/><tag k="addr:postcode" v="97123"/><tag k="addr:city" v="Hillsboro"/><tag k="addr:street" v="Southeast Baseline Street"/></node>
<node id="-65" lat="45.520471016" lon="-122.981655532" visible="true"><tag k="addr:housenumber" v="547"/><tag k="addr:postcode" v="97123"/><tag k="addr:city" v="Hillsboro"/><tag k="addr:street" v="Southeast Baseline Street"/></node>
<node id="-66" lat="45.520444327" lon="-122.981579009" visible="true"><tag k="addr:housenumber" v="549"/><tag k="addr:postcode" v="97123"/><tag k="addr:city" v="Hillsboro"/><tag k="addr:street" v="Southeast Baseline Street"/></node>
<node id="-67" lat="45.520305085" lon="-122.981539058" visible="true"><tag k="addr:housenumber" v="557"/><tag k="addr:postcode" v="97123"/><tag k="addr:city" v="Hillsboro"/><tag k="addr:street" v="Southeast Baseline Street"/></node>
<node id="-68" lat="45.521273809" lon="-122.989603436" visible="true"><tag k="addr:housenumber" v="110"/><tag k="addr:postcode" v="97123"/><tag k="addr:city" v="Hillsboro"/><tag k="addr:street" v="Southeast Washington Street"/></node>
<node id="-69" lat="45.521228205" lon="-122.988737807" visible="true"><tag k="addr:housenumber" v="160"/><tag k="addr:postcode" v="97123"/><tag k="addr:city" v="Hillsboro"/><tag k="addr:street" v="Southeast Washington Street"/></node>
<node id="-70" lat="45.521283355" lon="-122.988124781" visible="true"><tag k="addr:housenumber" v="198"/><tag k="addr:postcode" v="97123"/><tag k="addr:city" v="Hillsboro"/><tag k="addr:street" v="Southeast Washington Street"/></node>
<node id="-71" lat="45.52112298" lon="-122.985904023" visible="true"><tag k="addr:housenumber" v="310"/><tag k="addr:postcode" v="97123"/><tag k="addr:city" v="Hillsboro"/><tag k="addr:street" v="Southeast Washington Street"/></node>
<node id="-72" lat="45.521094897" lon="-122.985399298" visible="true"><tag k="addr:housenumber" v="320"/><tag k="addr:postcode" v="97123"/><tag k="addr:city" v="Hillsboro"/><tag k="addr:street" v="Southeast Washington Street"/></node>
<node id="-73" lat="45.521101388" lon="-122.985392709" visible="true"><tag k="addr:housenumber" v="322"/><tag k="addr:postcode" v="97123"/><tag k="addr:city" v="Hillsboro"/><tag k="addr:street" v="Southeast Washington Street"/></node>
<node id="-74" lat="45.521099693" lon="-122.985391079" visible="true"><tag k="addr:housenumber" v="350"/><tag k="addr:postcode" v="97123"/><tag k="addr:city" v="Hillsboro"/><tag k="addr:street" v="Southeast Washington Street"/></node>
<node id="-75" lat="45.521100083" lon="-122.985397604" visible="true"><tag k="addr:housenumber" v="354"/><tag k="addr:postcode" v="97123"/><tag k="addr:city" v="Hillsboro"/><tag k="addr:street" v="Southeast Washington Street"/></node>
<node id="-76" lat="45.521161741" lon="-122.984076375" visible="true"><tag k="addr:housenumber" v="402"/><tag k="addr:postcode" v="97123"/><tag k="addr:city" v="Hillsboro"/><tag k="addr:street" v="Southeast Washington Street"/></node>
<node id="-77" lat="45.521155744" lon="-122.982288354" visible="true"><tag k="addr:housenumber" v="508"/><tag k="addr:postcode" v="97123"/><tag k="addr:city" v="Hillsboro"/><tag k="addr:street" v="Southeast Washington Street"/></node>
</osm>